YAOGAN-39 01C           
1 57731U 23130E   25230.18621730  .00004385  00000+0  21672-3 0  9992
2 57731  34.9931 241.1166 0002904 198.8739 161.1866 15.17281469109413
STARLINK-30375          
1 57732U 23131A   25230.15274478 -.00000754  00000+0 -40732-4 0  9991
2 57732  43.0015 185.2587 0000915 290.3872  69.6872 15.02537350109347
STARLINK-30310          
1 57733U 23131B   25229.96734745  .00001442  00000+0  12178-3 0  9992
2 57733  43.0028 198.3620 0000961 288.4093  71.6644 15.02538826109292
STARLINK-30365          
1 57734U 23131C   25229.60508874 -.00000138  00000+0  48826-5 0  9999
2 57734  43.0025 200.7734 0001420 291.9584  68.1108 15.02534586109205
STARLINK-30371          
1 57735U 23131D   25229.64826002  .00000384  00000+0  43480-4 0  9992
2 57735  43.0029 200.2678 0001166 281.7254  78.3457 15.02535114109231
STARLINK-30352          
1 57736U 23131E   25229.63827124  .00001271  00000+0  10913-3 0  9998
2 57736  43.0018 200.1957 0001086 278.9024  81.1696 15.02537126109235
STARLINK-30344          
1 57737U 23131F   25230.19229338  .00000163  00000+0  27100-4 0  9991
2 57737  43.0030 197.4784 0001043 277.2838  82.7885 15.02535974109049
STARLINK-30351          
1 57738U 23131G   25229.61508580  .00001082  00000+0  95141-4 0  9997
2 57738  43.0035 200.8854 0001148 282.8603  77.2111 15.02545618109227
STARLINK-30242          
1 57739U 23131H   25230.16077452 -.00000256  00000+0 -38520-5 0  9992
2 57739  43.0029 172.3471 0001214 271.0660  89.0043 15.02534575109490
STARLINK-30331          
1 57740U 23131J   25230.20036923 -.00000411  00000+0 -54251-5 0  9999
2 57740  42.9998 168.5966 0001101 275.4168  84.6558 15.27590608109383
STARLINK-30364          
1 57741U 23131K   25229.93082338 -.00000039  00000+0  12170-4 0  9997
2 57741  43.0021 198.9524 0000951 271.1549  88.9184 15.02534192109154
STARLINK-30308          
1 57742U 23131L   25229.61175198  .00001028  00000+0  91120-4 0  9990
2 57742  43.0025 200.8588 0000684 344.5795  15.5027 15.02541576109238
STARLINK-30361          
1 57743U 23131M   25230.19340226  .00000560  00000+0  56518-4 0  9994
2 57743  43.0012 197.4825 0001092 275.2297  84.8420 15.02536934109206
STARLINK-30363          
1 57744U 23131N   25229.88349631 -.00003703  00000+0 -25901-3 0  9993
2 57744  43.0030 186.6783 0001180 265.2260  94.8448 15.02557914109412
STARLINK-30362          
1 57745U 23131P   25230.19004579  .00002538  00000+0  20278-3 0  9994
2 57745  43.0016 197.4564 0000950 268.4729  91.6005 15.02558964109097
STARLINK-30350          
1 57746U 23131Q   25230.22004258 -.00000230  00000+0 -19229-5 0  9998
2 57746  43.0024 197.6640 0001125 271.9341  88.1373 15.02535066109309
STARLINK-30307          
1 57747U 23131R   25230.19118090  .00000507  00000+0  52555-4 0  9998
2 57747  43.0015 197.4649 0001002 276.9129  83.1600 15.02538812109209
STARLINK-30356          
1 57748U 23131S   25229.91750816 -.00001935  00000+0 -12826-3 0  9999
2 57748  43.0029 198.8493 0001162 259.9102 100.1609 15.02526800109276
STARLINK-30366          
1 57749U 23131T   25229.63161078  .00001100  00000+0  96466-4 0  9990
2 57749  43.0028 200.1431 0001147 270.3369  89.7342 15.02538819109235
STARLINK-30357          
1 57750U 23131U   25229.64160088  .00000753  00000+0  70830-4 0  9993
2 57750  43.0018 200.2191 0001038 272.0476  88.0248 15.02534593109239
STARLINK-30370          
1 57751U 23131V   25229.61426448  .00000339  00000+0  40181-4 0  9992
2 57751  43.0022 188.1340 0000842 272.0904  87.9842 15.02536371109372
STARLINK-30368          
1 57752U 23131W   25229.93415392  .00001303  00000+0  11146-3 0  9994
2 57752  43.0017 198.9430 0001146 275.1424  84.9287 15.02546756109272
STARLINK-30343          
1 57753U 23131X   25229.64493182  .00000437  00000+0  47409-4 0  9995
2 57753  43.0022 200.2447 0000997 276.3025  83.7703 15.02534966109233
WILDFIRE 4              
1 57756U 23133A   25229.65687687  .00000043  00000+0  27289-4 0  9993
2 57756  81.0023 297.9504 0011313  97.7045 262.5397 13.86292975 99063
BB4                     
1 57757U 23133B   25229.93528300  .00000143  00000+0  11756-3 0  9993
2 57757  80.9996 298.4190 0011086 101.9664 258.2735 13.84732972 99040
WILDFIRE 3              
1 57758U 23133C   25229.92873067  .00000089  00000+0  67452-4 0  9990
2 57758  80.9969 297.5666 0010203  97.4133 262.8183 13.86064481 99086
BB3                     
1 57760U 23133D   25229.93387535  .00000177  00000+0  12531-3 0  9999
2 57760  80.9995 298.2537 0014719  85.3603 274.9238 13.93856714 99055
WILDFIRE 7              
1 57761U 23133E   25229.66960874  .00000096  00000+0  75025-4 0  9991
2 57761  80.9995 299.1929 0006723 128.5803 231.5956 13.85019941 98979
CHECKMATE 10            
1 57762U 23133F   25229.88190329  .00000044  00000+0  28631-4 0  9990
2 57762  81.0007 298.5975 0007695 109.6918 250.5069 13.85427787 99031
WILDFIRE 6              
1 57763U 23133G   25229.68710970  .00000068  00000+0  50438-4 0  9995
2 57763  80.9956 298.6040 0007225 116.0543 244.1358 13.85270324 98999
