OBJECT_NAME,OBJECT_ID,EPOCH,MEAN_MOTION,ECCENTRICITY,INCLINATION,RA_OF_ASC_NODE,ARG_OF_PERICENTER,MEAN_ANOMALY,EPHEMERIS_TYPE,CLASSIFICATION_TYPE,NORAD_CAT_ID,ELEMENT_SET_NO,REV_AT_EPOCH,BSTAR,MEAN_MOTION_DOT,MEAN_MOTION_DDOT
YAOGAN-39 01C,2023-130E,2025-08-18T04:28:09.174720,15.17281469,0.0002904,34.9931,241.1166,198.8739,161.1866,0,U,57731,999,10941,0.00021672,4.385e-05,0.0
STARLINK-30375,2023-131A,2025-08-18T03:39:57.148992,15.0253735,9.15e-05,43.0015,185.2587,290.3872,69.6872,0,U,57732,999,10934,-4.0732e-05,-7.54e-06,0.0
STARLINK-30310,2023-131B,2025-08-17T23:12:58.819680,15.02538826,9.61e-05,43.0028,198.362,288.4093,71.6644,0,U,57733,999,10929,0.00012178,1.442e-05,0.0
STARLINK-30365,2023-131C,2025-08-17T14:31:19.667136,15.02534586,0.000142,43.0025,200.7734,291.9584,68.1108,0,U,57734,999,10920,4.8826e-06,-1.38e-06,0.0
STARLINK-30371,2023-131D,2025-08-17T15:33:29.665728,15.02535114,0.0001166,43.0029,200.2678,281.7254,78.3457,0,U,57735,999,10923,4.348e-05,3.84e-06,0.0
STARLINK-30352,2023-131E,2025-08-17T15:19:06.635136,15.02537126,0.0001086,43.0018,200.1957,278.9024,81.1696,0,U,57736,999,10923,0.00010913,1.271e-05,0.0
STARLINK-30344,2023-131F,2025-08-18T04:36:54.148032,15.02535974,0.0001043,43.003,197.4784,277.2838,82.7885,0,U,57737,999,10904,2.71e-05,1.63e-06,0.0
STARLINK-30351,2023-131G,2025-08-17T14:45:43.413120,15.02545618,0.0001148,43.0035,200.8854,282.8603,77.2111,0,U,57738,999,10922,9.5141e-05,1.082e-05,0.0
STARLINK-30242,2023-131H,2025-08-18T03:51:30.918528,15.02534575,0.0001214,43.0029,172.3471,271.066,89.0043,0,U,57739,999,10949,-3.852e-06,-2.56e-06,0.0
STARLINK-30331,2023-131J,2025-08-18T04:48:31.901472,15.27590608,0.0001101,42.9998,168.5966,275.4168,84.6558,0,U,57740,999,10938,-5.4251e-06,-4.11e-06,0.0
STARLINK-30364,2023-131K,2025-08-17T22:20:23.140032,15.02534192,9.51e-05,43.0021,198.9524,271.1549,88.9184,0,U,57741,999,10915,1.217e-05,-3.9e-07,0.0
STARLINK-30308,2023-131L,2025-08-17T14:40:55.371072,15.02541576,6.84e-05,43.0025,200.8588,344.5795,15.5027,0,U,57742,999,10923,9.112e-05,1.028e-05,0.0
STARLINK-30361,2023-131M,2025-08-18T04:38:29.955264,15.02536934,0.0001092,43.0012,197.4825,275.2297,84.842,0,U,57743,999,10920,5.6518e-05,5.6e-06,0.0
STARLINK-30363,2023-131N,2025-08-17T21:12:14.081184,15.02557914,0.000118,43.003,186.6783,265.226,94.8448,0,U,57744,999,10941,-0.00025901,-3.703e-05,0.0
STARLINK-30362,2023-131P,2025-08-18T04:33:39.956256,15.02558964,9.5e-05,43.0016,197.4564,268.4729,91.6005,0,U,57745,999,10909,0.00020278,2.538e-05,0.0
STARLINK-30350,2023-131Q,2025-08-18T05:16:51.678912,15.02535066,0.0001125,43.0024,197.664,271.9341,88.1373,0,U,57746,999,10930,-1.9229e-06,-2.3e-06,0.0
STARLINK-30307,2023-131R,2025-08-18T04:35:18.029760,15.02538812,0.0001002,43.0015,197.4649,276.9129,83.16,0,U,57747,999,10920,5.2555e-05,5.07e-06,0.0
STARLINK-30356,2023-131S,2025-08-17T22:01:12.705024,15.025268,0.0001162,43.0029,198.8493,259.9102,100.1609,0,U,57748,999,10927,-0.00012826,-1.935e-05,0.0
STARLINK-30366,2023-131T,2025-08-17T15:09:31.171392,15.02538819,0.0001147,43.0028,200.1431,270.3369,89.7342,0,U,57749,999,10923,9.6466e-05,1.1e-05,0.0
STARLINK-30357,2023-131U,2025-08-17T15:23:54.316032,15.02534593,0.0001038,43.0018,200.2191,272.0476,88.0248,0,U,57750,999,10923,7.083e-05,7.53e-06,0.0
STARLINK-30370,2023-131V,2025-08-17T14:44:32.451072,15.02536371,8.42e-05,43.0022,188.134,272.0904,87.9842,0,U,57751,999,10937,4.0181e-05,3.39e-06,0.0
STARLINK-30368,2023-131W,2025-08-17T22:25:10.898688,15.02546756,0.0001146,43.0017,198.943,275.1424,84.9287,0,U,57752,999,10927,0.00011146,1.303e-05,0.0
STARLINK-30343,2023-131X,2025-08-17T15:28:42.109248,15.02534966,9.97e-05,43.0022,200.2447,276.3025,83.7703,0,U,57753,999,10923,4.7409e-05,4.37e-06,0.0
WILDFIRE 4,2023-133A,2025-08-17T15:45:54.161568,13.86292975,0.0011313,81.0023,297.9504,97.7045,262.5397,0,U,57756,999,9906,2.7289e-05,4.3e-07,0.0
BB4,2023-133B,2025-08-17T22:26:48.451200,13.84732972,0.0011086,80.9996,298.419,101.9664,258.2735,0,U,57757,999,9904,0.00011756,1.43e-06,0.0
WILDFIRE 3,2023-133C,2025-08-17T22:17:22.329888,13.86064481,0.0010203,80.9969,297.5666,97.4133,262.8183,0,U,57758,999,9908,6.7452e-05,8.9e-07,0.0
BB3,2023-133D,2025-08-17T22:24:46.830240,13.93856714,0.0014719,80.9995,298.2537,85.3603,274.9238,0,U,57760,999,9905,0.00012531,1.77e-06,0.0
WILDFIRE 7,2023-133E,2025-08-17T16:04:14.195136,13.85019941,0.0006723,80.9995,299.1929,128.5803,231.5956,0,U,57761,999,9897,7.5025e-05,9.6e-07,0.0
CHECKMATE 10,2023-133F,2025-08-17T21:09:56.444256,13.85427787,0.0007695,81.0007,298.5975,109.6918,250.5069,0,U,57762,999,9903,2.8631e-05,4.4e-07,0.0
WILDFIRE 6,2023-133G,2025-08-17T16:29:26.278080,13.85270324,0.0007225,80.9956,298.604,116.0543,244.1358,0,U,57763,999,9899,5.0438e-05,6.8e-07,0.0
